ONEWEB-0674             
1 55833U 23029AP  24336.89851161 -.00000058  00000+0 -18974-3 0  9993
2 55833  87.9023  41.5460 0002231  88.8672 271.2713 13.14502338 86223
ONEWEB-0675             
1 55834U 23029AQ  24336.64664272  .00000120  00000+0  26723-3 0  9991
2 55834  87.9193  56.8455 0001510 113.1466 246.9826 13.19725796 84724
ONEWEB-0720             
1 55835U 23029AR  24336.63874434  .00000184  00000+0  42820-3 0  9990
2 55835  87.9191  56.8456 0001524  86.1430 273.9877 13.19725305 84642
ONEWEB-0537             
1 56046U 23043A   24336.74108926 -.00000008  00000+0 -54298-4 0  9999
2 56046  87.9079 340.8166 0001710  98.0472 262.0853 13.16591815 84952
ONEWEB-0538             
1 56047U 23043B   24336.73476284  .00000023  00000+0  27847-4 0  9999
2 56047  87.9084 340.8387 0001512  90.0556 270.0748 13.16592395 84966
ONEWEB-0546             
1 56048U 23043C   24337.02608814  .00000045  00000+0  84265-4 0  9990
2 56048  87.9081 340.7478 0001988 114.1274 246.0065 13.16592118 85909
ONEWEB-0547             
1 56049U 23043D   24336.82513508 -.00000008  00000+0 -51229-4 0  9998
2 56049  87.9297 356.0145 0001665  92.6634 267.4691 13.21824156 83931
ONEWEB-0548             
1 56050U 23043E   24336.74744043  .00000003  00000+0 -24895-4 0  9994
2 56050  87.9077 340.8449 0002279  84.5994 275.5397 13.16592611 84956
